IRIDIUM 159             
1 43578U 18061K   25045.94289809  .00000024  00000+0  13470-5 0  9993
2 43578  86.3919 260.2873 0001854  90.0297 270.1112 14.34217535343546
IRIDIUM 180             
1 43922U 19002A   25045.94239543  .00000086  00000+0  23514-4 0  9999
2 43922  86.4004 197.1929 0002109  97.9859 262.1576 14.34217778319153
IRIDIUM 176             
1 43923U 19002B   25045.89850741  .00002315  00000+0  36313-3 0  9990
2 43923  86.6132 197.2137 0001486 115.8893 244.2478 14.72255195327557
IRIDIUM 168             
1 43924U 19002C   25045.93605162  .00000505  00000+0  17308-3 0  9993
2 43924  86.4011 197.2594 0001845  93.7415 266.3992 14.34219200319138
IRIDIUM 173             
1 43925U 19002D   25045.92335904  .00000095  00000+0  27029-4 0  9993
2 43925  86.4004 197.1734 0002188  96.9559 263.1886 14.34214565319115
IRIDIUM 169             
1 43926U 19002E   25045.94462033  .00000234  00000+0  70063-4 0  9991
2 43926  86.4202 228.7556 0003479 109.1258 251.0317 14.38587031320174
IRIDIUM 172             
1 43927U 19002F   25045.91702379  .00000836  00000+0  29146-3 0  9992
2 43927  86.4004 197.1825 0001877  96.8130 263.3279 14.34218208319123
IRIDIUM 175             
1 43928U 19002G   25045.89324218  .00001942  00000+0  30403-3 0  9999
2 43928  86.1555 156.7174 0003067  86.7371 273.4196 14.72252406327543
